{"lat":{"31":49.2811586,"272":49.2568641,"369":49.283281,"914":49.2822371,"1305":49.2255037,"1370":49.1713655,"1460":49.1255297,"1648":49.2908899,"1692":49.2269239,"1726":49.2253539,"1769":49.2272203,"1779":49.2505823,"1794":49.280725,"1868":49.280766,"1869":49.2807019,"1952":49.262662,"2052":49.2150615,"2064":49.1624838,"2629":49.2312959,"2632":49.2311656,"2661":49.2191845,"2679":49.1853915,"2756":49.1898841,"3002":49.0344707,"3008":49.0549676,"3009":49.103842,"3010":49.164438,"3011":49.1949271,"3219":49.2367332,"3232":49.2638667,"3373":49.08301,"3463":49.2777635,"3573":49.1709575,"3607":49.3362548,"3750":49.0290227,"4063":49.2433917,"4439":49.2813486,"4486":49.2313066,"5018":49.2763126,"5687":49.2825798,"6067":49.1681125,"6129":49.3124337,"7063":49.1430748,"7188":49.1051647,"7810":49.2301506,"8141":49.058318,"9653":49.2241011,"10457":49.1838659,"10470":49.0434482,"10914":49.1937013,"12353":49.1792107,"12774":49.2856383,"12906":49.0522798,"12960":49.2090537,"13741":49.2733419,"13880":49.2527909,"14500":49.0292491,"14501":49.0287964,"14674":49.0895451,"15357":49.2810908,"15511":49.2868278,"15571":49.2787068,"15770":49.2096974,"15776":49.3251479,"17186":49.263685,"17246":49.2809933},"lon":{"31":-123.0767324,"272":-123.2358195,"369":-122.7948501,"914":-123.1310338,"1305":-123.0655768,"1370":-123.1398643,"1460":-123.178667,"1648":-122.8375388,"1692":-123.0020086,"1726":-122.9989338,"1769":-122.9994254,"1779":-122.8958192,"1794":-123.1066368,"1868":-123.1068858,"1869":-123.106855,"1952":-123.0926546,"2052":-122.9385781,"2064":-122.58526,"2629":-123.007224,"2632":-123.0061103,"2661":-122.9696684,"2679":-122.8475271,"2756":-122.8042948,"3002":-122.249969,"3008":-122.4828013,"3009":-122.6571718,"3010":-122.8899195,"3011":-122.77745,"3219":-123.0328356,"3232":-123.0312546,"3373":-122.4251634,"3463":-123.1236147,"3573":-122.5769659,"3607":-123.0927596,"3750":-122.8020832,"4063":-123.0608254,"4439":-123.0917551,"4486":-123.090415,"5018":-122.8572536,"5687":-123.1343242,"6067":-122.8906574,"6129":-123.0806467,"7063":-123.165036,"7188":-122.8068016,"7810":-122.9861823,"8141":-122.3801291,"9653":-122.9946329,"10457":-123.08202,"10470":-122.3013808,"10914":-122.8022864,"12353":-122.8303599,"12774":-123.1336819,"12906":-122.3177519,"12960":-122.9153899,"13741":-123.1221805,"13880":-122.8934829,"14500":-122.8167086,"14501":-122.8167302,"14674":-122.6230934,"15357":-123.1000958,"15511":-123.1255033,"15571":-122.7919508,"15770":-123.1173448,"15776":-123.134022,"17186":-123.1332074,"17246":-123.0890396},"timestamp":{"31":"2018-05-16T22:30:01.000-07:00","272":"2010-03-28T11:09:27.000-07:00","369":"2019-09-13T13:56:59.000-07:00","914":"2019-11-06T13:20:21.000-08:00","1305":"2019-09-13T13:57:02.000-07:00","1370":"2016-10-08T17:15:50.000-07:00","1460":"2016-10-12T18:04:14.000-07:00","1648":"2016-08-25T16:49:03.000-07:00","1692":"2017-09-03T06:59:20.000-07:00","1726":"2019-02-03T01:58:46.000-08:00","1769":"2017-09-03T06:59:32.000-07:00","1779":"2017-03-13T04:12:45.000-07:00","1794":"2017-03-13T04:18:41.000-07:00","1868":"2017-03-13T04:18:37.000-07:00","1869":"2017-03-13T04:18:39.000-07:00","1952":"2019-09-13T13:57:00.000-07:00","2052":"2017-03-17T17:08:15.000-07:00","2064":"2019-09-13T13:56:59.000-07:00","2629":"2017-03-19T02:33:35.000-07:00","2632":"2017-03-19T02:36:59.000-07:00","2661":"2017-03-19T05:57:22.000-07:00","2679":"2017-03-20T04:31:45.000-07:00","2756":"2017-03-21T05:02:47.000-07:00","3002":"2016-05-30T04:30:51.000-07:00","3008":"2017-02-19T20:18:39.000-08:00","3009":"2017-02-19T20:28:28.000-08:00","3010":"2017-02-19T20:32:09.000-08:00","3011":"2017-02-19T20:36:47.000-08:00","3219":"2019-09-13T13:57:02.000-07:00","3232":"2019-09-13T13:57:02.000-07:00","3373":"2019-09-13T13:56:59.000-07:00","3463":"2019-10-16T20:50:09.000-07:00","3573":"2016-11-01T01:10:48.000-07:00","3607":"2017-06-27T17:11:43.000-07:00","3750":"2020-04-15T18:49:01.000-07:00","4063":"2017-03-23T04:34:34.000-07:00","4439":"2019-09-13T13:57:02.000-07:00","4486":"2019-09-13T13:57:02.000-07:00","5018":"2017-12-12T13:23:11.000-08:00","5687":"2017-03-27T01:06:57.000-07:00","6067":"2018-09-07T10:15:19.000-07:00","6129":"2015-10-04T19:34:42.000-07:00","7063":"2019-06-13T19:19:08.000-07:00","7188":"2016-11-29T07:27:51.000-08:00","7810":"2019-07-18T02:26:34.000-07:00","8141":"2016-09-05T20:52:32.000-07:00","9653":"2019-09-13T13:56:49.000-07:00","10457":"2015-12-06T22:30:37.000-08:00","10470":"2019-02-18T15:15:22.000-08:00","10914":"2020-01-09T02:12:26.000-08:00","12353":"2019-02-17T12:13:32.000-08:00","12774":"2019-03-22T02:54:38.000-07:00","12906":"2019-04-01T18:04:08.000-07:00","12960":"2010-10-22T23:18:15.000-07:00","13741":"2019-05-04T04:55:51.000-07:00","13880":"2010-12-01T10:44:06.000-08:00","14500":"2019-01-16T03:50:29.000-08:00","14501":"2019-09-02T22:08:26.000-07:00","14674":"2019-09-13T13:57:05.000-07:00","15357":"2017-10-22T15:20:09.000-07:00","15511":"2019-10-28T15:41:35.000-07:00","15571":"2020-01-29T18:22:17.000-08:00","15770":"2014-06-05T03:19:32.000-07:00","15776":"2020-06-27T15:12:27.000-07:00","17186":"2018-02-15T23:57:37.000-08:00","17246":"2019-07-17T18:32:17.000-07:00"},"amenity":{"31":"community_centre","272":"community_centre","369":"community_centre","914":"community_centre","1305":"community_centre","1370":"community_centre","1460":"community_centre","1648":"community_centre","1692":"community_centre","1726":"community_centre","1769":"community_centre","1779":"community_centre","1794":"community_centre","1868":"community_centre","1869":"community_centre","1952":"community_centre","2052":"community_centre","2064":"community_centre","2629":"community_centre","2632":"community_centre","2661":"community_centre","2679":"community_centre","2756":"community_centre","3002":"community_centre","3008":"community_centre","3009":"community_centre","3010":"community_centre","3011":"community_centre","3219":"community_centre","3232":"community_centre","3373":"community_centre","3463":"community_centre","3573":"community_centre","3607":"community_centre","3750":"community_centre","4063":"community_centre","4439":"community_centre","4486":"community_centre","5018":"community_centre","5687":"community_centre","6067":"community_centre","6129":"community_centre","7063":"community_centre","7188":"community_centre","7810":"community_centre","8141":"community_centre","9653":"community_centre","10457":"community_centre","10470":"community_centre","10914":"community_centre","12353":"community_centre","12774":"community_centre","12906":"community_centre","12960":"gym","13741":"community_centre","13880":"park","14500":"community_centre","14501":"community_centre","14674":"community_centre","15357":"community_centre","15511":"training","15571":"community_centre","15770":"community_centre","15776":"community_centre","17186":"community_centre","17246":"community_centre"},"name":{"31":"Korean Community Centre","272":"Leisure Centre","369":"Glen Pine Pavilion","914":null,"1305":"South Vancouver Neighbourhood House","1370":"City Centre Community Centre","1460":"Steveston Community Centre","1648":"101\/103 Parkside Drive Recreational Complex","1692":"Jellybean Park","1726":"Jellybeans","1769":"CHQ","1779":"Family Lounge","1794":"Find + Seek","1868":"Piranha","1869":"Game Center","1952":"Tonari Gumi\u2013 Japanese Community Volunteers Association","2052":"The Stanjean Center","2064":"Fort Langley Lions Senior Hall","2629":"Partyworld Ktv Burnaby","2632":"Maple Leaf Music School","2661":"K-Mix Karaoke","2679":"Central City","2756":"Interactive Play Park","3002":null,"3008":"Aldergrove Kinsmen Community Centre","3009":"Timms Community Centre","3010":"Kennedy Community Hall Association","3011":"Fraser Heights Recreation Centre","3219":"Collingwood Neighbourhood House","3232":"Thunderbird Community Centre","3373":"Edenvale Community Garden and Education Centre","3463":"Gathering Place","3573":"Trinity Western House","3607":"Delbrook Community Recreation Center","3750":"White Rock Community Centre","4063":"Billiards","4439":"Downtown Eastside Neighbourhood House","4486":"South Hill Neighbourhood Centre","5018":"Port Moody Arts Centre (Old City Hall)","5687":"West End - Coal Harbour Community Policing","6067":"Deltassist","6129":"John Braithwaite Community Centre","7063":"West Richmond Community Centre","7188":"Tong Louie Family YMCA","7810":null,"8141":null,"9653":"Bonsor 55+ Centre","10457":"Cambie Community Centre","10470":"Sweeney Neighbourhood Centre","10914":"Guilford Recreation Centre","12353":"Surrey Nature Centre at Green Timbers","12774":"Gordon Neighbourhood House","12906":"Youth for Christ","12960":"Curves","13741":"Round House Community Centre","13880":"Fitness City","14500":"Centennial Park Leisure Centre and Arena","14501":"Horst and Emmy Werner Centre for Active Living","14674":"Murrayville Hall","15357":"Carnegie Community Centre","15511":"TCP Training Centers Vancouver","15571":"WorkBC","15770":null,"15776":"ACCESS","17186":"Canada Service","17246":"YWCA Cause We Care House"},"tags":{"31":{"addr:housenumber":"1320","addr:street":"East Hastings Street","phone":"+1-604-255-3739","addr:postcode":"V5L 1S3","addr:city":"Vancouver"},"272":{},"369":{"description":"Community Centre for Adults (50+)","addr:housenumber":"1200","addr:street":"Glen Pine Court","addr:postcode":"V3B 2P7","addr:city":"Coquitlam"},"914":{"noname":"yes","access":"residents"},"1305":{"addr:housenumber":"6470","addr:street":"Victoria Drive","addr:city":"Vancouver"},"1370":{"addr:housenumber":"5900","addr:street":"Minoru Boulevard","addr:unit":"105","addr:city":"Richmond"},"1460":{"name:en":"Steveston Community Centre"},"1648":{"opening_hours":"Mo-Su 06:00-22:00","name:en":"101\/103 Parkside Drive Recreational Complex"},"1692":{"level":"1","name:en":"Jellybean Park"},"1726":{"level":"1","fixme":"This is a commercial child care while the parents are shopping in the mall. I don't think of it as a community centre."},"1769":{"level":"1","name:en":"CHQ"},"1779":{"name:en":"Family Lounge"},"1794":{"name:en":"Find + Seek"},"1868":{"name:en":"Piranha"},"1869":{"name:en":"Game Center"},"1952":{"addr:housenumber":"511","addr:street":"East Broadway","phone":"+1-604-687-2172","addr:postcode":"V5T 1X4","addr:city":"Vancouver"},"2052":{"name:en":"The Stanjean Center"},"2064":{"addr:street":"88 Avenue","addr:city":"Township of Langley"},"2629":{"name:en":"Partyworld Ktv Burnaby"},"2632":{"name:en":"Maple Leaf Music School"},"2661":{"name:en":"K-Mix Karaoke"},"2679":{"name:en":"Central City"},"2756":{"name:en":"Interactive Play Park"},"3002":{},"3008":{"addr:housenumber":"26770","addr:street":"29 Avenue"},"3009":{"addr:housenumber":"20399","addr:street":"Douglas Crescent"},"3010":{"addr:housenumber":"8870","addr:street":"Scott Road"},"3011":{"addr:housenumber":"10588","addr:street":"160 Street"},"3219":{"addr:housenumber":"5288","addr:street":"Joyce Street","addr:city":"Vancouver"},"3232":{"addr:housenumber":"2311","addr:street":"Cassiar Street","addr:city":"Vancouver"},"3373":{"addr:housenumber":"4460","addr:street":"Bradner Road","addr:city":"Abbotsford"},"3463":{"opening_hours":"11:00-22:00","addr:housenumber":"609","addr:street":"Helmcken Street","addr:city":"Vancouver"},"3573":{"website":"http:\/\/twu.ca","name:en":"Trinity Western House","addr:street":"Glover Road"},"3607":{},"3750":{"opening_hours":"Mo-Th 08:30-18:00; Fr 08:30-16:30; Sa 09:00-13:00; PH off","addr:housenumber":"15154","addr:street":"Russell Avenue","operator":"City of White Rock","addr:city":"White Rock"},"4063":{"name:en":"Billiards"},"4439":{"addr:housenumber":"573","addr:street":"East Hastings Street","addr:city":"Vancouver"},"4486":{"addr:housenumber":"5888","addr:street":"Fraser Street","addr:city":"Vancouver"},"5018":{"addr:housenumber":"2425","name:en":"Port Moody Arts Centre (Old City Hall)","addr:street":"Saint Johns Street"},"5687":{"addr:housenumber":"1267","addr:street":"Davie Street"},"6067":{"operator":"Municipality of Delta"},"6129":{},"7063":{},"7188":{"wheelchair":"yes","addr:housenumber":"14988","website":"https:\/\/gv.ymca.ca\/Locations\/Surrey\/Newton\/Tong-Louie-Family-YMCA","phone":"+1-604-575-9622","opening_hours":"Mo-Fr 05:00-23:00; Sa-Su,PH 07:00-21:00; Dec 25 off","addr:street":"57 Avenue"},"7810":{"website":"http:\/\/bcbasque.com","addr:postcode":"V5H 2X5","name:eu":"Zazpiak Bat Basque Society","email":"bcbasque@bcbasque.com"},"8141":{"addr:unit":"G135","layer":"2"},"9653":{"note":"Built 2013; building outline will be visible on aerial imagery after that date.","addr:housenumber":"6533","website":"https:\/\/www.burnaby.ca\/Things-To-Do\/Community-Centres\/Bonsor-Recreation-Complex\/Seniors.html","access":"yes","addr:street":"Nelson Avenue","addr:postcode":"V5H 0C2","addr:city":"Burnaby"},"10457":{"addr:housenumber":"12800","addr:street":"Cambie Road"},"10470":{"addr:housenumber":"33355","website":"https:\/\/www.abbotsford.ca\/parksrecreationandculture\/recreation\/facilities_schedules_and_admission.htm","phone":"+1-778-880-8501","addr:street":"Bevan Avenue","addr:postcode":"V2S 1W1","addr:city":"Abbotsford"},"10914":{"wheelchair":"yes","addr:housenumber":"15105","website":"https:\/\/www.surrey.ca\/culture-recreation\/1876.aspx","internet_access":"wlan","phone":"+1-604-502-6360","opening_hours":"Mo-Fr 06:00-22:00; Sa-Su 08:00-20:00","name:en":"Guildford Recreation Centre","addr:street":"105 Avenue"},"12353":{"addr:housenumber":"14225","website":"https:\/\/www.surrey.ca\/culture-recreation\/2311.aspx","phone":"+1-604-502-6065","addr:street":"Green Timbers Way","addr:postcode":"V3T 0J2","addr:city":"Surrey"},"12774":{"addr:housenumber":"1019","website":"https:\/\/gordonhouse.org\/","phone":"+1-604-683-2554","opening_hours":"Mo-Th 09:00-20:00; Fr 09:00-14:00; Sa 09:00-16:00; Su 10:00-15:00","description":"Gordon Neighbourhood House is a community service organization.","addr:street":"Broughton Street","addr:postcode":"V6G 2A7","email":"welcome@gordonhouse.org"},"12906":{"website":"https:\/\/www.youthunlimited.com\/programs-and-locations\/abbotsford","addr:unit":"2","operator":"Youth Unlimited"},"12960":{"source":"gps\/photo survey"},"13741":{"opening_hours":"Mo-Fr 09:00-22:00; Sa-Su 09:00-17:00","website":"www.roundhouse.ca"},"13880":{},"14500":{"opening_hours":"Mo-Su 06:00-23:00","addr:housenumber":"14600","addr:street":"North Bluff Road"},"14501":{"opening_hours":"Mo-Th 07:00-21:00; Fr 07:00-19:00; Sa 09:00-17:00; Su,PH off","addr:housenumber":"1475","addr:street":"Anderson Street"},"14674":{"addr:housenumber":"21667","website":"http:\/\/murrayvillehall.ca","addr:street":"48 Avenue","operator":"Murrayville Community Memorial Hall Association","addr:city":"Langley"},"15357":{"addr:housenumber":"401","addr:street":"Main Street","wikidata":"Q5043884"},"15511":{"addr:housenumber":"1188","website":"http:\/\/www.tcptrainingcenters.com","phone":"+1-844-465-2935","addr:street":"West Georgia Street","addr:postcode":"V6E 4A2","addr:unit":"1800","email":"info@tcptrainingcenters.com","addr:city":"Vancouver"},"15571":{},"15770":{"addr:housenumber":"8401","name:en":"Soka Gakkai International (SGI) Vancouver Culture Centre","addr:street":"Cambie Street","addr:postcode":"V6P 3J9","addr:city":"Vancouver"},"15776":{"alt_name":"Aboriginal Community Centre Employment Services Society","office":"employment_agency","level":"1"},"17186":{"addr:housenumber":"1263","name:en":"Canada Service","addr:street":"West Broadway","phone":"+1-800-367-5693"},"17246":{"addr:housenumber":"720","addr:street":"East Hastings Street","phone":"+1-604-282-3113","addr:postcode":"V6A 1R5","addr:city":"Vancouver"}},"type":{"31":"fitness","272":"fitness","369":"fitness","914":"fitness","1305":"fitness","1370":"fitness","1460":"fitness","1648":"fitness","1692":"fitness","1726":"fitness","1769":"fitness","1779":"fitness","1794":"fitness","1868":"fitness","1869":"fitness","1952":"fitness","2052":"fitness","2064":"fitness","2629":"fitness","2632":"fitness","2661":"fitness","2679":"fitness","2756":"fitness","3002":"fitness","3008":"fitness","3009":"fitness","3010":"fitness","3011":"fitness","3219":"fitness","3232":"fitness","3373":"fitness","3463":"fitness","3573":"fitness","3607":"fitness","3750":"fitness","4063":"fitness","4439":"fitness","4486":"fitness","5018":"fitness","5687":"fitness","6067":"fitness","6129":"fitness","7063":"fitness","7188":"fitness","7810":"fitness","8141":"fitness","9653":"fitness","10457":"fitness","10470":"fitness","10914":"fitness","12353":"fitness","12774":"fitness","12906":"fitness","12960":"fitness","13741":"fitness","13880":"fitness","14500":"fitness","14501":"fitness","14674":"fitness","15357":"fitness","15511":"fitness","15571":"fitness","15770":"fitness","15776":"fitness","17186":"fitness","17246":"fitness"}}