{"lat":{"639":49.2330575,"2086":49.1677023,"3288":49.2832184,"3482":49.2795601,"3491":49.0491868,"3521":49.047635,"4138":49.2311381,"4585":49.0481093,"4615":49.2473395,"4715":49.2727615,"4908":49.199081,"4909":49.1642563,"4910":49.2108202,"4911":49.2646882,"4913":49.146123,"4956":49.2499348,"5155":49.2640436,"5713":49.1047294,"5876":49.0546193,"6068":49.283344,"6131":49.0496861,"6610":49.1160594,"6766":49.132225,"7156":49.0372725,"8110":49.0913347,"8918":49.1338573,"9066":49.1572075,"9260":49.214653,"9581":49.232058,"9614":49.0756706,"9630":49.0376409,"10015":49.2785109,"10274":49.2635513,"10856":49.0589534,"11447":49.0549066,"12299":49.2963016,"12714":49.3273905,"12922":49.271395,"12966":49.2097727,"13286":49.1206325,"13298":49.0304367,"13309":49.0899791,"13407":49.3168299,"13595":49.0452633,"13750":49.2681203,"13880":49.2527909,"13886":49.268067,"13892":49.0108397,"14282":49.2684486,"14451":49.1532057,"14537":49.131686,"14549":49.26417,"14566":49.1186156,"14573":49.1192114,"14691":49.0901086,"14857":49.026114,"15031":49.2813711,"15042":49.2811557,"15043":49.2670619,"15044":49.2560732,"15148":49.3251851,"15452":49.2486436,"15727":49.1159197,"15983":49.2580827,"16005":49.1333789,"16013":49.0954958,"16110":49.0445643,"16169":49.1836995,"16184":49.2493435,"17031":49.2200507,"17124":49.2625266,"17125":49.2135417,"17633":49.2478149},"lon":{"639":-123.0900907,"2086":-122.5792599,"3288":-122.8102707,"3482":-123.1301791,"3491":-122.259793,"3521":-122.2682273,"4138":-122.6888578,"4585":-122.3425163,"4615":-122.8912506,"4715":-123.147457,"4908":-122.8156236,"4909":-122.7976237,"4910":-123.0934412,"4911":-123.1112692,"4913":-123.1362158,"4956":-123.1157161,"5155":-123.1741207,"5713":-122.7252983,"5876":-122.3590777,"6068":-122.8256554,"6131":-122.28741,"6610":-122.679484,"6766":-123.0991958,"7156":-122.230249,"8110":-123.080261,"8918":-122.3270289,"9066":-122.7824719,"9260":-122.9881005,"9581":-123.0259732,"9614":-122.6705983,"9630":-122.2740653,"10015":-122.8375957,"10274":-123.1455507,"10856":-122.4923691,"11447":-122.3195514,"12299":-122.8035442,"12714":-123.0730515,"12922":-122.7547928,"12966":-122.9166394,"13286":-122.8918799,"13298":-123.0682467,"13309":-123.0844059,"13407":-122.9711707,"13595":-122.293063,"13750":-123.1415519,"13880":-122.8934829,"13886":-123.140641,"13892":-122.6257438,"14282":-123.165675,"14451":-122.8908924,"14537":-122.8899393,"14549":-123.2100894,"14566":-122.663909,"14573":-122.6710399,"14691":-122.6045949,"14857":-122.2661191,"15031":-123.0166302,"15042":-123.0047536,"15043":-123.025486,"15044":-123.0232893,"15148":-123.1342328,"15452":-123.0721879,"15727":-122.6828817,"15983":-123.1689248,"16005":-122.3205212,"16013":-123.077153,"16110":-122.2217332,"16169":-123.1259624,"16184":-122.8679916,"17031":-122.9287177,"17124":-122.8380189,"17125":-122.9386195,"17633":-123.0700724},"timestamp":{"639":"2019-01-26T04:00:52.000-08:00","2086":"2019-09-13T13:56:59.000-07:00","3288":"2017-02-23T21:35:26.000-08:00","3482":"2019-06-24T19:38:32.000-07:00","3491":"2018-06-20T15:11:26.000-07:00","3521":"2018-02-09T04:59:53.000-08:00","4138":"2019-09-13T13:57:02.000-07:00","4585":"2019-09-02T22:08:26.000-07:00","4615":"2018-12-08T01:49:20.000-08:00","4715":"2018-10-26T20:30:29.000-07:00","4908":"2017-02-22T02:51:47.000-08:00","4909":"2016-11-05T21:36:46.000-07:00","4910":"2016-11-05T21:42:56.000-07:00","4911":"2016-11-05T21:47:22.000-07:00","4913":"2019-02-18T01:08:28.000-08:00","4956":"2019-08-10T21:19:03.000-07:00","5155":"2019-11-19T22:35:39.000-08:00","5713":"2017-09-23T21:10:27.000-07:00","5876":"2019-09-02T22:08:26.000-07:00","6068":"2019-08-21T07:39:27.000-07:00","6131":"2018-06-20T15:11:28.000-07:00","6610":"2017-06-10T21:04:06.000-07:00","6766":"2017-06-07T00:24:59.000-07:00","7156":"2019-09-02T22:08:26.000-07:00","8110":"2019-07-07T21:50:17.000-07:00","8918":"2019-05-19T14:14:02.000-07:00","9066":"2019-08-04T05:08:45.000-07:00","9260":"2018-10-25T14:21:00.000-07:00","9581":"2019-11-30T20:36:31.000-08:00","9614":"2018-06-20T15:09:53.000-07:00","9630":"2019-09-02T22:08:25.000-07:00","10015":"2019-09-02T01:46:53.000-07:00","10274":"2018-09-12T17:20:24.000-07:00","10856":"2019-11-17T23:44:25.000-08:00","11447":"2019-09-02T22:08:25.000-07:00","12299":"2019-08-15T00:25:19.000-07:00","12714":"2012-12-31T01:09:29.000-08:00","12922":"2016-03-16T00:12:33.000-07:00","12966":"2018-10-26T20:29:57.000-07:00","13286":"2019-08-18T05:55:49.000-07:00","13298":"2019-08-18T10:15:50.000-07:00","13309":"2019-08-20T16:53:20.000-07:00","13407":"2020-02-09T18:39:57.000-08:00","13595":"2018-06-20T15:10:29.000-07:00","13750":"2020-01-26T03:53:08.000-08:00","13880":"2010-12-01T10:44:06.000-08:00","13886":"2018-02-10T16:17:28.000-08:00","13892":"2015-04-30T01:16:50.000-07:00","14282":"2019-09-13T13:57:05.000-07:00","14451":"2019-09-28T08:28:09.000-07:00","14537":"2017-07-30T02:14:59.000-07:00","14549":"2011-01-15T03:04:12.000-08:00","14566":"2019-12-03T06:43:44.000-08:00","14573":"2020-06-28T18:09:16.000-07:00","14691":"2019-07-12T07:49:23.000-07:00","14857":"2018-02-09T04:59:38.000-08:00","15031":"2020-06-11T20:37:55.000-07:00","15042":"2020-06-11T20:37:55.000-07:00","15043":"2019-09-13T13:57:05.000-07:00","15044":"2019-11-16T04:48:06.000-08:00","15148":"2020-06-21T02:52:38.000-07:00","15452":"2019-07-23T12:12:29.000-07:00","15727":"2019-10-12T06:42:33.000-07:00","15983":"2010-08-27T23:14:24.000-07:00","16005":"2019-05-20T01:23:09.000-07:00","16013":"2019-07-17T06:02:31.000-07:00","16110":"2019-09-02T22:08:25.000-07:00","16169":"2020-04-03T19:34:38.000-07:00","16184":"2020-04-06T04:53:43.000-07:00","17031":"2018-10-26T20:29:59.000-07:00","17124":"2018-02-09T04:59:32.000-08:00","17125":"2013-11-26T17:29:34.000-08:00","17633":"2019-10-07T05:30:47.000-07:00"},"amenity":{"639":"veterinary","2086":"veterinary","3288":"veterinary","3482":"veterinary","3491":"veterinary","3521":"veterinary","4138":"veterinary","4585":"veterinary","4615":"veterinary","4715":"veterinary","4908":"veterinary","4909":"veterinary","4910":"veterinary","4911":"veterinary","4913":"veterinary","4956":"veterinary","5155":"veterinary","5713":"veterinary","5876":"veterinary","6068":"veterinary","6131":"veterinary","6610":"veterinary","6766":"veterinary","7156":"veterinary","8110":"veterinary","8918":"veterinary","9066":"veterinary","9260":"veterinary","9581":"veterinary","9614":"veterinary","9630":"veterinary","10015":"veterinary","10274":"veterinary","10856":"veterinary","11447":"veterinary","12299":"veterinary","12714":"veterinary","12922":"veterinary","12966":"veterinary","13286":"veterinary","13298":"veterinary","13309":"veterinary","13407":"veterinary","13595":"veterinary","13750":"veterinary","13880":"park","13886":"veterinary","13892":"veterinary","14282":"veterinary","14451":"veterinary","14537":"veterinary","14549":"veterinary","14566":"veterinary","14573":"veterinary","14691":"veterinary","14857":"veterinary","15031":"veterinary","15042":"veterinary","15043":"veterinary","15044":"veterinary","15148":"veterinary","15452":"veterinary","15727":"veterinary","15983":"veterinary","16005":"veterinary","16013":"veterinary","16110":"veterinary","16169":"veterinary","16184":"veterinary","17031":"veterinary","17124":"veterinary","17125":"veterinary","17633":"veterinary"},"name":{"639":"Atlas Animal Hospital","2086":"Fort Langley Veterinary Clinic","3288":"Westwood Pet Hospital","3482":"Urban Animal Hospital","3491":"Glenn Mountain Animal Hospital","3521":"Allwest Animal Hospital","4138":"Pitt Meadows Animal Clinic","4585":"South Fraser Animal Hospital","4615":null,"4715":"Cypress St Animal Hospital","4908":"Pacific Animal Hospital","4909":"Mainland Animal Emergency Clinic","4910":"Intercity Animal Emergency Clinic","4911":"Vancouver Animal Emergency and Referral Centre","4913":"Richmond Animal Hospital","4956":"West King Edward Animal Clinic","5155":"Acadia Veterinary Clinic","5713":"Feline Hospital","5876":"TOWNLINE VETERINARY HOSPITAL","6068":"Newport Village Animal Hospital","6131":"Gladys Pet Hospital","6610":"Mountain View Veterinary Hospital","6766":"Ironwood Animal Hospital","7156":"Ellwood Park animal hospital","8110":null,"8918":"Lougheed Animal Hospital","9066":"All Critters Animal Hospital","9260":"Metrotown Animal Hospital","9581":"Pacific Pet Clinic","9614":"Brookswood Veterinary Hospital","9630":"Coastal Rivers Pet Hospital","10015":"Healing Paws","10274":"Burrard Animal Hospital","10856":"Animal Hospital","11447":"Gladwin Veterinary Clinic","12299":"Barn Door Veterinary Care","12714":"Lonsdale Veterinary Hospital","12922":"Coast Meridian Animal Hospital","12966":"Alpine Animal Hospital","13286":null,"13298":"Huff Animal Hospital","13309":"48th Avenue Animal Hospital","13407":"Park Gate Animal & Bird Hospita","13595":"Abbotsford Valley Animal Emergency Clinic","13750":"Granville Island Veterinary Hospital","13880":"Fitness City","13886":"Cats Only Veterinary Clinic","13892":"Critter Care Wildlife Society","14282":"Kitsilano Animal Clinic","14451":"North Delta Animal Hospital","14537":"Scottsdale Veterinary Hospital","14549":null,"14566":"Willowbrook Animal Hospital","14573":"Apex","14691":"Paws & Claws Animal Hospita","14857":"PetSmart","15031":"Hastings Veterinary Hospital","15042":"North Burnaby Pet Hospital","15043":"Canada West Veterinary Specialists","15044":"Boundary Animal Hospital","15148":"West Vancouver Veterinary Hospital","15452":"Vancouver Veterinarian","15727":"Avon Animal Hospital","15983":"Arbutus West Animal Clinic","16005":"Eagle Hill Animal Hospital","16013":"Trenant Park Pet Clinic","16110":"Alpha Animal Hospital","16169":"Dr.Jean Hsu","16184":"Coquitlam Animal Hospital","17031":"Central City Animal Hospital","17124":"Como Lake Veterinary Hospital","17125":"Burnaby New Westminster Animal Hospital","17633":"Sunshine Plaza Animal Hospital"},"tags":{"639":{"opening_hours":"24\/7"},"2086":{"website":"http:\/\/fortlangleyvetclinic.vetsuite.com","addr:street":"Glover Road","phone":"+1-604-888-4142","addr:city":"Township of Langley"},"3288":{"name:en":"Westwood Pet Hospital"},"3482":{"opening_hours":"Mo-Sa 09:00-18:00","addr:housenumber":"1032","addr:street":"Davie Street"},"3491":{"phone":"+1-604-852-3030"},"3521":{"phone":"+1-604-870-9333","level":"2","addr:unit":"108"},"4138":{"addr:housenumber":"19227","addr:street":"Lougheed Highway","addr:city":"Pitt Meadows"},"4585":{"website":"https:\/\/m.facebook.com\/South-Fraser-Animal-Hospital-1523961581148867","phone":"+1-604-855-0770","opening_hours":"Mo-Fr 08:00-20:00; Sa-Su 09:00-16:00","addr:unit":"3","operator":"Dr. Sukhvinder Dhillon","url":"http:\/\/southfraseranimalhospital.com"},"4615":{},"4715":{"phone":"+1-604-734-2500"},"4908":{"opening_hours":"Mo-Sa 09:00-20:00","addr:housenumber":"14675","website":"http:\/\/surreyvet.ca\/contact-us.html","addr:street":"108 Avenue","phone":"+1-604-585-1177"},"4909":{"opening_hours":"Mo 00:00-08:00,17:00-08:00; Tu-Fr 17:00-08:00; Sa 16:00-24:00; Su,PH 00:00-24:00","addr:housenumber":"15338","website":"http:\/\/www.surreyanimaler.com\/","addr:street":"Fraser Highway","phone":"+1-604-588-4000"},"4910":{"opening_hours":"Mo 00:00-08:00,18:00-08:00; Tu-Fr 18:00-08:00; Sa 17:00-24:00; Su,PH 00:00-24:00","addr:housenumber":"580","addr:street":"Southeast Marine Drive","phone":"+1-604-321-8080"},"4911":{"wheelchair":"yes","addr:housenumber":"2303","website":"http:\/\/animaler.com\/","phone":"+1-604-879-3737","opening_hours":"24\/7","addr:street":"Alberta Street"},"4913":{"opening_hours":"Mo,Fr 08:00-18:00; Tu 07:00-20:00; We 08:00-20:00; Th 07:00-18:00; Sa 08:00-16:00; Su off","addr:housenumber":"9220","website":"https:\/\/richmondanimalhospital.ca\/","addr:street":"No. 3 Road","phone":"+1-604-277-3161"},"4956":{"opening_hours":"Mo-Fr 08:00-18:00; Sa 09:00-15:30","addr:housenumber":"510","website":"https:\/\/www.vancouvervet.com\/","addr:street":"West 24th Avenue"},"5155":{},"5713":{},"5876":{"opening_hours":"Mo-Fr 08:30-17:30; Sa 09:00-13:00","website":"https:\/\/www.townlineveterinaryhospital.com\/","phone":"+1-604-855-6622","level":"1","addr:unit":"7"},"6068":{},"6131":{"opening_hours":"Mo-Fr 08:00-20:00; Sa-Su 09:00-17:00","website":"http:\/\/www.gladysvet.ca","phone":"+1-604-850-2000"},"6610":{},"6766":{},"7156":{"opening_hours":"Mo-Fr 08:00-17:30; Th 08:00-20:00; Sa 09:00-16:00","website":"http:\/\/ellwoodpark.ca","phone":"+1-604-855-8900","addr:unit":"120"},"8110":{},"8918":{},"9066":{"addr:unit":"301C"},"9260":{"phone":"+1-604-436-0106"},"9581":{"addr:housenumber":"3628","addr:street":"Kingsway"},"9614":{"phone":"+1-604-534-4174","addr:unit":"101B"},"9630":{"opening_hours":"Mo-Fr 07:00-22:30; PH,Sa-Su 08:00-18:00","website":"https:\/\/www.coastalriverspet.com\/","phone":"+1-604-425-1900","addr:unit":"2"},"10015":{},"10274":{"opening_hours":"24\/7"},"10856":{},"11447":{"opening_hours":"Mo-We,Fr 08:30-17:00; Th 08:30-20:00; Sa 09:00-13:00; Mo-We,Fr 12:30-13:30 off; Su off","website":"https:\/\/www.gladwinvet.com\/","phone":"+1-604-850-0446","addr:unit":"104"},"12299":{},"12714":{},"12922":{},"12966":{"phone":"+1-604-525-3400","source":"gps\/photo survey"},"13286":{},"13298":{},"13309":{},"13407":{},"13595":{"opening_hours":"Mo-Sa 18:00-08:00","website":"http:\/\/abbotsfordanimalemergency.com","phone":"+1-604-850-0911","addr:unit":"C"},"13750":{},"13880":{},"13886":{"wheelchair":"yes","phone":"+1-604-734-2287"},"13892":{"note":"Wildlife rehabilitation center for native mammals."},"14282":{"addr:housenumber":"2645","website":"https:\/\/kitsilanoanimalclinic.ca","phone":"+1-604-736-8648","opening_hours":"Mo-Fr 09:00-18:00; Sa 09:00-17:00","addr:street":"West 4th Avenue","addr:postcode":"V6K 1P8","addr:city":"Vancouver"},"14451":{},"14537":{"addr:housenumber":"7072","surrey:addrid":"54900","addr:street":"120 Street","source":"City of Surrey 2010 GIS Data","surrey:date":"19850801","addr:city":"Surrey"},"14549":{},"14566":{"opening_hours":"Mo-Sa 08:00-24:00, Su 09:00-24:00","phone":"604-532-1889"},"14573":{"phone":"+1-604-514-1444"},"14691":{"addr:unit":"B"},"14857":{"opening_hours":"08:00-22:00","website":"http:\/\/stores.petsmart.com\/484","ref":"484","shop":"pet","phone":"+1-604-854-8132"},"15031":{"addr:housenumber":"3995","addr:street":"Hastings Street","addr:city":"Burnaby"},"15042":{"addr:housenumber":"4431","addr:street":"Hastings Street","addr:city":"Burnaby"},"15043":{"addr:housenumber":"1988","addr:street":"Kootenay Street","addr:city":"Vancouver"},"15044":{"addr:housenumber":"3114","addr:street":"Boundary Road","addr:city":"Burnaby"},"15148":{"level":"0"},"15452":{"addr:housenumber":"1541","website":"https:\/\/vancouverveterinary.com\/","name:en":"Vancouver Veterinary hospital","addr:street":"Kingsway"},"15727":{},"15983":{},"16005":{"website":"https:\/\/www.eaglehillvet.ca","addr:unit":"4"},"16013":{"addr:housenumber":"5080","website":"http:\/\/trenantparkpetclinic.com","addr:street":"Linden Drive"},"16110":{"opening_hours":"Mo-Fr 08:00-20:00; Sa 09:00-16:00; Su off","website":"http:\/\/www.abbyeastvet.com","phone":"+1-604-859-6322","addr:unit":"125","operator":"Dr. Vishesh Jalan"},"16169":{"addr:province":"BC","addr:housenumber":"8888","phone":"778-926-2353","addr:street":"Odlin Crescent","addr:postcode":"V6X3Z8","addr:unit":"1160","operator":"Certified Veterinary Acupuncturist","email":"drwchsu@gmail.com","addr:city":"Richmond"},"16184":{"addr:province":"B.C.","addr:housenumber":"1001","addr:street":"Austin Avenue","addr:postcode":"V3K 3N9","addr:unit":"105","addr:city":"Coquitlam"},"17031":{"addr:housenumber":"7834","addr:street":"6th Street","phone":"+1-604-522-3344","addr:city":"Burnaby"},"17124":{"addr:housenumber":"1950","website":"http:\/\/comolakevet.com\/","phone":"+1-604-931-7760","opening_hours":"Mo-Fr 08:00-18:00; We 08:00-20:00; Sa 09:00-16:00; Su off","addr:street":"Como Lake Avenue","addr:postcode":"V3J 3R3","addr:city":"Coquitlam"},"17125":{},"17633":{"addr:housenumber":"1691","addr:street":"Kingsway","entrance":"yes"}},"type":{"639":"pets","2086":"pets","3288":"pets","3482":"pets","3491":"pets","3521":"pets","4138":"pets","4585":"pets","4615":"pets","4715":"pets","4908":"pets","4909":"pets","4910":"pets","4911":"pets","4913":"pets","4956":"pets","5155":"pets","5713":"pets","5876":"pets","6068":"pets","6131":"pets","6610":"pets","6766":"pets","7156":"pets","8110":"pets","8918":"pets","9066":"pets","9260":"pets","9581":"pets","9614":"pets","9630":"pets","10015":"pets","10274":"pets","10856":"pets","11447":"pets","12299":"pets","12714":"pets","12922":"pets","12966":"pets","13286":"pets","13298":"pets","13309":"pets","13407":"pets","13595":"pets","13750":"pets","13880":"pets","13886":"pets","13892":"pets","14282":"pets","14451":"pets","14537":"pets","14549":"pets","14566":"pets","14573":"pets","14691":"pets","14857":"pets","15031":"pets","15042":"pets","15043":"pets","15044":"pets","15148":"pets","15452":"pets","15727":"pets","15983":"pets","16005":"pets","16013":"pets","16110":"pets","16169":"pets","16184":"pets","17031":"pets","17124":"pets","17125":"pets","17633":"pets"}}